CCSDS_OMM_VERS = 2.0
CREATION_DATE  = 
ORIGINATOR     = 

OBJECT_NAME    = UNKNOWN
OBJECT_ID      = 
CENTER_NAME    = EARTH
REF_FRAME      = TEME
TIME_SYSTEM    = UTC
MEAN_ELEMENT_THEORY = SGP/SGP4

EPOCH          = 2026-02-28T06:23:17.668608
MEAN_MOTION    = 13.59008153
ECCENTRICITY   = .00157831
INCLINATION    = 100.9919
RA_OF_ASC_NODE = 357.7122
ARG_OF_PERICENTER = 194.9187
MEAN_ANOMALY   = 165.1484

EPHEMERIS_TYPE = 0
CLASSIFICATION_TYPE = U
NORAD_CAT_ID   = 270011
ELEMENT_SET_NO = 999
REV_AT_EPOCH   = 30194
BSTAR          = .27133458E-1
MEAN_MOTION_DOT = .19935E-3
MEAN_MOTION_DDOT = 0

CCSDS_OMM_VERS = 2.0
CREATION_DATE  = 
ORIGINATOR     = 

OBJECT_NAME    = UNKNOWN
OBJECT_ID      = 
CENTER_NAME    = EARTH
REF_FRAME      = TEME
TIME_SYSTEM    = UTC
MEAN_ELEMENT_THEORY = SGP/SGP4

EPOCH          = 2026-02-27T13:25:03.717984
MEAN_MOTION    = 12.97061477
ECCENTRICITY   = .00355884
INCLINATION    = 90.2372
RA_OF_ASC_NODE = 356.8797
ARG_OF_PERICENTER = 6.6717
MEAN_ANOMALY   = 353.4870

EPHEMERIS_TYPE = 0
CLASSIFICATION_TYPE = U
NORAD_CAT_ID   = 270012
ELEMENT_SET_NO = 999
REV_AT_EPOCH   = 29613
BSTAR          = .23658609E-3
MEAN_MOTION_DOT = .76E-6
MEAN_MOTION_DDOT = 0

CCSDS_OMM_VERS = 2.0
CREATION_DATE  = 
ORIGINATOR     = 

OBJECT_NAME    = UNKNOWN
OBJECT_ID      = 
CENTER_NAME    = EARTH
REF_FRAME      = TEME
TIME_SYSTEM    = UTC
MEAN_ELEMENT_THEORY = SGP/SGP4

EPOCH          = 2026-02-04T15:13:08.941728
MEAN_MOTION    = 12.16562288
ECCENTRICITY   = .01540263
INCLINATION    = 102.6851
RA_OF_ASC_NODE = 4.0364
ARG_OF_PERICENTER = 109.7395
MEAN_ANOMALY   = 252.0337

EPHEMERIS_TYPE = 0
CLASSIFICATION_TYPE = U
NORAD_CAT_ID   = 270013
ELEMENT_SET_NO = 999
REV_AT_EPOCH   = 27509
BSTAR          = .69677244E-3
MEAN_MOTION_DOT = .27E-6
MEAN_MOTION_DDOT = 0

CCSDS_OMM_VERS = 2.0
CREATION_DATE  = 
ORIGINATOR     = 

OBJECT_NAME    = UNKNOWN
OBJECT_ID      = 
CENTER_NAME    = EARTH
REF_FRAME      = TEME
TIME_SYSTEM    = UTC
MEAN_ELEMENT_THEORY = SGP/SGP4

EPOCH          = 2026-02-26T13:10:27.911424
MEAN_MOTION    = 14.08600731
ECCENTRICITY   = .00557397
INCLINATION    = 99.8065
RA_OF_ASC_NODE = 172.0212
ARG_OF_PERICENTER = 278.0228
MEAN_ANOMALY   = 81.4616

EPHEMERIS_TYPE = 0
CLASSIFICATION_TYPE = U
NORAD_CAT_ID   = 270018
ELEMENT_SET_NO = 999
REV_AT_EPOCH   = 31906
BSTAR          = .30001574E-2
MEAN_MOTION_DOT = .5184E-4
MEAN_MOTION_DDOT = 0

CCSDS_OMM_VERS = 2.0
CREATION_DATE  = 
ORIGINATOR     = 

OBJECT_NAME    = UNKNOWN
OBJECT_ID      = 
CENTER_NAME    = EARTH
REF_FRAME      = TEME
TIME_SYSTEM    = UTC
MEAN_ELEMENT_THEORY = SGP/SGP4

EPOCH          = 2026-02-01T04:42:15.343488
MEAN_MOTION    = 12.95831154
ECCENTRICITY   = .00504229
INCLINATION    = 90.2496
RA_OF_ASC_NODE = 7.5384
ARG_OF_PERICENTER = 175.3197
MEAN_ANOMALY   = 184.8405

EPHEMERIS_TYPE = 0
CLASSIFICATION_TYPE = U
NORAD_CAT_ID   = 270019
ELEMENT_SET_NO = 999
REV_AT_EPOCH   = 29231
BSTAR          = .21968806E-3
MEAN_MOTION_DOT = .7E-6
MEAN_MOTION_DDOT = 0

CCSDS_OMM_VERS = 2.0
CREATION_DATE  = 
ORIGINATOR     = 

OBJECT_NAME    = UNKNOWN
OBJECT_ID      = 
CENTER_NAME    = EARTH
REF_FRAME      = TEME
TIME_SYSTEM    = UTC
MEAN_ELEMENT_THEORY = SGP/SGP4

EPOCH          = 2026-02-25T20:20:33.326016
MEAN_MOTION    = 13.96422169
ECCENTRICITY   = .00174438
INCLINATION    = 82.5332
RA_OF_ASC_NODE = 104.7673
ARG_OF_PERICENTER = 322.3085
MEAN_ANOMALY   = 37.6859

EPHEMERIS_TYPE = 0
CLASSIFICATION_TYPE = U
NORAD_CAT_ID   = 270020
ELEMENT_SET_NO = 999
REV_AT_EPOCH   = 31744
BSTAR          = .51519375E-3
MEAN_MOTION_DOT = .726E-5
MEAN_MOTION_DDOT = 0

CCSDS_OMM_VERS = 2.0
CREATION_DATE  = 
ORIGINATOR     = 

OBJECT_NAME    = UNKNOWN
OBJECT_ID      = 
CENTER_NAME    = EARTH
REF_FRAME      = TEME
TIME_SYSTEM    = UTC
MEAN_ELEMENT_THEORY = SGP/SGP4

EPOCH          = 2026-02-04T13:35:05.968320
MEAN_MOTION    = 12.65868099
ECCENTRICITY   = .00557762
INCLINATION    = 82.7183
RA_OF_ASC_NODE = 150.3536
ARG_OF_PERICENTER = 310.5966
MEAN_ANOMALY   = 49.0281

EPHEMERIS_TYPE = 0
CLASSIFICATION_TYPE = U
NORAD_CAT_ID   = 270021
ELEMENT_SET_NO = 999
REV_AT_EPOCH   = 28587
BSTAR          = .18673929E-2
MEAN_MOTION_DOT = .363E-5
MEAN_MOTION_DDOT = 0

CCSDS_OMM_VERS = 2.0
CREATION_DATE  = 
ORIGINATOR     = 

OBJECT_NAME    = UNKNOWN
OBJECT_ID      = 
CENTER_NAME    = EARTH
REF_FRAME      = TEME
TIME_SYSTEM    = UTC
MEAN_ELEMENT_THEORY = SGP/SGP4

EPOCH          = 2026-02-27T19:43:02.748576
MEAN_MOTION    = 12.65716703
ECCENTRICITY   = .05865542
INCLINATION    = 100.1121
RA_OF_ASC_NODE = 266.5420
ARG_OF_PERICENTER = 273.6921
MEAN_ANOMALY   = 79.7313

EPHEMERIS_TYPE = 0
CLASSIFICATION_TYPE = U
NORAD_CAT_ID   = 270022
ELEMENT_SET_NO = 999
REV_AT_EPOCH   = 28548
BSTAR          = .12057569E-1
MEAN_MOTION_DOT = .4404E-4
MEAN_MOTION_DDOT = 0

CCSDS_OMM_VERS = 2.0
CREATION_DATE  = 
ORIGINATOR     = 

OBJECT_NAME    = UNKNOWN
OBJECT_ID      = 
CENTER_NAME    = EARTH
REF_FRAME      = TEME
TIME_SYSTEM    = UTC
MEAN_ELEMENT_THEORY = SGP/SGP4

EPOCH          = 2026-02-05T15:18:29.550528
MEAN_MOTION    = 12.45730306
ECCENTRICITY   = .00246979
INCLINATION    = 73.6384
RA_OF_ASC_NODE = 184.2986
ARG_OF_PERICENTER = 338.1862
MEAN_ANOMALY   = 21.8131

EPHEMERIS_TYPE = 0
CLASSIFICATION_TYPE = U
NORAD_CAT_ID   = 270023
ELEMENT_SET_NO = 999
REV_AT_EPOCH   = 28155
BSTAR          = .14699922E-2
MEAN_MOTION_DOT = .194E-5
MEAN_MOTION_DDOT = 0

CCSDS_OMM_VERS = 2.0
CREATION_DATE  = 
ORIGINATOR     = 

OBJECT_NAME    = UNKNOWN
OBJECT_ID      = 
CENTER_NAME    = EARTH
REF_FRAME      = TEME
TIME_SYSTEM    = UTC
MEAN_ELEMENT_THEORY = SGP/SGP4

EPOCH          = 2026-02-03T01:38:38.848416
MEAN_MOTION    = 12.62478101
ECCENTRICITY   = .00004929
INCLINATION    = 51.9826
RA_OF_ASC_NODE = 326.7243
ARG_OF_PERICENTER = 105.8630
MEAN_ANOMALY   = 254.2291

EPHEMERIS_TYPE = 0
CLASSIFICATION_TYPE = U
NORAD_CAT_ID   = 270024
ELEMENT_SET_NO = 999
REV_AT_EPOCH   = 28552
BSTAR          = .16570006E-3
MEAN_MOTION_DOT = -.74E-6
MEAN_MOTION_DDOT = 0

CCSDS_OMM_VERS = 2.0
CREATION_DATE  = 
ORIGINATOR     = 

OBJECT_NAME    = UNKNOWN
OBJECT_ID      = 
CENTER_NAME    = EARTH
REF_FRAME      = TEME
TIME_SYSTEM    = UTC
MEAN_ELEMENT_THEORY = SGP/SGP4

EPOCH          = 2026-02-04T14:34:31.493280
MEAN_MOTION    = 14.22356858
ECCENTRICITY   = .00738132
INCLINATION    = 98.5962
RA_OF_ASC_NODE = 358.6652
ARG_OF_PERICENTER = 278.5644
MEAN_ANOMALY   = 80.7175

EPHEMERIS_TYPE = 0
CLASSIFICATION_TYPE = U
NORAD_CAT_ID   = 270025
ELEMENT_SET_NO = 999
REV_AT_EPOCH   = 32040
BSTAR          = .83352192E-3
MEAN_MOTION_DOT = .1863E-4
MEAN_MOTION_DDOT = 0

CCSDS_OMM_VERS = 2.0
CREATION_DATE  = 
ORIGINATOR     = 

OBJECT_NAME    = UNKNOWN
OBJECT_ID      = 
CENTER_NAME    = EARTH
REF_FRAME      = TEME
TIME_SYSTEM    = UTC
MEAN_ELEMENT_THEORY = SGP/SGP4

EPOCH          = 2026-02-25T01:59:26.903328
MEAN_MOTION    = 11.92233878
ECCENTRICITY   = .03972852
INCLINATION    = 103.3395
RA_OF_ASC_NODE = 176.3951
ARG_OF_PERICENTER = 187.4640
MEAN_ANOMALY   = 172.0354

EPHEMERIS_TYPE = 0
CLASSIFICATION_TYPE = U
NORAD_CAT_ID   = 270026
ELEMENT_SET_NO = 999
REV_AT_EPOCH   = 27170
BSTAR          = .76727922E-2
MEAN_MOTION_DOT = .658E-5
MEAN_MOTION_DDOT = 0

CCSDS_OMM_VERS = 2.0
CREATION_DATE  = 
ORIGINATOR     = 

OBJECT_NAME    = UNKNOWN
OBJECT_ID      = 
CENTER_NAME    = EARTH
REF_FRAME      = TEME
TIME_SYSTEM    = UTC
MEAN_ELEMENT_THEORY = SGP/SGP4

EPOCH          = 2026-02-01T09:29:19.999104
MEAN_MOTION    = 11.80319079
ECCENTRICITY   = .0498207
INCLINATION    = 100.9452
RA_OF_ASC_NODE = 271.7076
ARG_OF_PERICENTER = 53.7110
MEAN_ANOMALY   = 310.8890

EPHEMERIS_TYPE = 0
CLASSIFICATION_TYPE = U
NORAD_CAT_ID   = 270027
ELEMENT_SET_NO = 999
REV_AT_EPOCH   = 26593
BSTAR          = .40944083E-1
MEAN_MOTION_DOT = .3603E-4
MEAN_MOTION_DDOT = 0

CCSDS_OMM_VERS = 2.0
CREATION_DATE  = 
ORIGINATOR     = 

OBJECT_NAME    = UNKNOWN
OBJECT_ID      = 
CENTER_NAME    = EARTH
REF_FRAME      = TEME
TIME_SYSTEM    = UTC
MEAN_ELEMENT_THEORY = SGP/SGP4

EPOCH          = 2026-02-14T21:08:55.260096
MEAN_MOTION    = 13.96473170
ECCENTRICITY   = .00075826
INCLINATION    = 82.5191
RA_OF_ASC_NODE = 107.1781
ARG_OF_PERICENTER = 216.1227
MEAN_ANOMALY   = 143.9429

EPHEMERIS_TYPE = 0
CLASSIFICATION_TYPE = U
NORAD_CAT_ID   = 270029
ELEMENT_SET_NO = 999
REV_AT_EPOCH   = 31583
BSTAR          = .14524746E-2
MEAN_MOTION_DOT = .2021E-4
MEAN_MOTION_DDOT = 0

CCSDS_OMM_VERS = 2.0
CREATION_DATE  = 
ORIGINATOR     = 

OBJECT_NAME    = UNKNOWN
OBJECT_ID      = 
CENTER_NAME    = EARTH
REF_FRAME      = TEME
TIME_SYSTEM    = UTC
MEAN_ELEMENT_THEORY = SGP/SGP4

EPOCH          = 2026-02-22T08:04:51.298176
MEAN_MOTION    = 13.02091822
ECCENTRICITY   = .00350025
INCLINATION    = 90.2650
RA_OF_ASC_NODE = 18.7720
ARG_OF_PERICENTER = 227.4486
MEAN_ANOMALY   = 132.3682

EPHEMERIS_TYPE = 0
CLASSIFICATION_TYPE = U
NORAD_CAT_ID   = 270030
ELEMENT_SET_NO = 999
REV_AT_EPOCH   = 29638
BSTAR          = .29439499E-2
MEAN_MOTION_DOT = .922E-5
MEAN_MOTION_DDOT = 0

CCSDS_OMM_VERS = 2.0
CREATION_DATE  = 
ORIGINATOR     = 

OBJECT_NAME    = UNKNOWN
OBJECT_ID      = 
CENTER_NAME    = EARTH
REF_FRAME      = TEME
TIME_SYSTEM    = UTC
MEAN_ELEMENT_THEORY = SGP/SGP4

EPOCH          = 2026-02-01T16:39:51.286176
MEAN_MOTION    = 13.00206096
ECCENTRICITY   = .00084558
INCLINATION    = 90.2582
RA_OF_ASC_NODE = 17.6629
ARG_OF_PERICENTER = 337.9551
MEAN_ANOMALY   = 22.1207

EPHEMERIS_TYPE = 0
CLASSIFICATION_TYPE = U
NORAD_CAT_ID   = 270031
ELEMENT_SET_NO = 999
REV_AT_EPOCH   = 29309
BSTAR          = .16078442E-2
MEAN_MOTION_DOT = .492E-5
MEAN_MOTION_DDOT = 0

